{
    "links": {
        "self": "http://www.neowsapp.com/rest/v1/neo/3844021?api_key=iIulBulltgU6a56xZRHN4H3l9WmuAYTsLGpBGhQ2"
    },
    "id": "3844021",
    "neo_reference_id": "3844021",
    "name": "(2019 SG3)",
    "designation": "2019 SG3",
    "nasa_jpl_url": "http://ssd.jpl.nasa.gov/sbdb.cgi?sstr=3844021",
    "absolute_magnitude_h": 26.1,
    "estimated_diameter": {
        "kilometers": {
            "estimated_diameter_min": 0.0160160338,
            "estimated_diameter_max": 0.0358129403
        },
        "meters": {
            "estimated_diameter_min": 16.0160337979,
            "estimated_diameter_max": 35.8129403019
        },
        "miles": {
            "estimated_diameter_min": 0.0099518989,
            "estimated_diameter_max": 0.0222531225
        },
        "feet": {
            "estimated_diameter_min": 52.5460443254,
            "estimated_diameter_max": 117.4965270602
        }
    },
    "is_potentially_hazardous_asteroid": false,
    "close_approach_data": [
        {
            "close_approach_date": "2019-10-08",
            "close_approach_date_full": "2019-Oct-08 03:36",
            "epoch_date_close_approach": 1570505760000,
            "relative_velocity": {
                "kilometers_per_second": "6.4913656549",
                "kilometers_per_hour": "23368.9163577249",
                "miles_per_hour": "14520.5358334986"
            },
            "miss_distance": {
                "astronomical": "0.0584095328",
                "lunar": "22.7213082592",
                "kilometers": "8737941.694575136",
                "miles": "5429505.1995074368"
            },
            "orbiting_body": "Earth"
        }
    ],
    "orbital_data": {
        "orbit_id": "3",
        "orbit_determination_date": "2020-09-11 07:44:23",
        "first_observation_date": "2019-09-22",
        "last_observation_date": "2019-10-03",
        "data_arc_in_days": 11,
        "observations_used": 17,
        "orbit_uncertainty": "8",
        "minimum_orbit_intersection": ".0578611",
        "jupiter_tisserand_invariant": "4.007",
        "epoch_osculation": "2458750.5",
        "eccentricity": ".4077284888380308",
        "semi_major_axis": "1.761274835415923",
        "inclination": "7.929180593478156",
        "ascending_node_longitude": "3.854011000486444",
        "orbital_period": "853.7665235331539",
        "perihelion_distance": "1.043152908343337",
        "perihelion_argument": "23.8719133792837",
        "aphelion_distance": "2.479396762488508",
        "perihelion_time": "2458777.164951160831",
        "mean_anomaly": "348.7564314677344",
        "mean_motion": ".4216609460279691",
        "equinox": "J2000",
        "orbit_class": {
            "orbit_class_type": "AMO",
            "orbit_class_description": "Near-Earth asteroid orbits similar to that of 1221 Amor",
            "orbit_class_range": "1.017 AU < q (perihelion) < 1.3 AU"
        }
    },
    "is_sentry_object": false
}